STARLINK-30535          
1 58001U 23153L   26068.05566297 -.00000365  00000+0 -39061-5 0  9999
2 58001  42.9996  70.2617 0001859 273.2776  86.7863 15.26739724134805
FLOCK 4G-5              
1 62663U 25009BG  26068.45638436  .00011278  00000+0  40688-3 0  9997
2 62663  97.4058 151.2478 0002094 314.5072  45.5996 15.28679529 63699
